ESTCUBE 1               
1 39161U 13021C   21309.75579755 -.00000192  00000-0 -22440-4 0  9992
2 39161  97.9327  27.6407 0010670  62.6959 297.5321 14.72570023456540
FENGYUN 3C              
1 39260U 13052A   21309.89424072 -.00000089  00000-0 -24350-4 0  9999
2 39260  98.4829 344.0243 0010940 192.8524 167.2369 14.15882978420280
CASSIOPE                
1 39265U 13055A   21309.84277729  .00007361  00000-0  20515-3 0  9993
2 39265  80.9641 143.4938 0641754 258.3701  94.4822 14.33768347420225
ZACUBE-1 (TSHEPISOSAT)  
1 39417U 13066B   21309.40002269  .00001144  00000-0  14742-3 0  9999
2 39417  97.6093 286.5471 0059831  59.8372 300.8751 14.81659322429946
CINEMA-3 (KHUSAT-2)     
1 39426U 13066L   21309.39413293  .00000487  00000-0  83504-4 0  9992
2 39426  97.7721 254.4768 0102725 233.1822 125.9928 14.69771614426355
TRITON-1                
1 39427U 13066M   21309.78991680  .00000828  00000-0  13879-3 0  9993
2 39427  97.7896 250.7193 0111599 259.3380  99.5242 14.68383141426143
DELFI-N3XT              
1 39428U 13066N   21309.43504655  .00001644  00000-0  26533-3 0  9996
2 39428  97.7930 248.8786 0117883 273.8420  84.9314 14.68234651425651
GOMX-1                  
1 39430U 13066Q   21309.74563460  .00002003  00000-0  36676-3 0  9991
2 39430  97.8129 224.6876 0151129  30.3016 330.6855 14.59729222423657
BRITE-PL1 (LEM)         
1 39431U 13066R   21309.43505842  .00000216  00000-0  56121-4 0  9990
2 39431  97.7274 177.6729 0201369 202.1180 157.1236 14.47184544419968
ICUBE-1                 
1 39432U 13066S   21309.49509056  .00001363  00000-0  14185-3 0  9995
2 39432  97.4716 320.0807 0030170 293.5008  66.3042 14.91077860431322
HUMSAT-D                
1 39433U 13066T   21309.32620148  .00002435  00000-0  23672-3 0  9996
2 39433  97.4619 327.1589 0028571 270.1302  89.6645 14.93155415431760
VELOX-PII               
1 39438U 13066Y   21309.83506716  .00000768  00000-0  10800-3 0  9997
2 39438  97.6615 277.7674 0071593 104.4604 256.4566 14.78335489429097
FIRST-MOVE              
1 39439U 13066Z   21309.39216540  .00002426  00000-0  29456-3 0  9992
2 39439  97.6131 288.3213 0065752  56.9107 303.8396 14.82880229428838
CUBEBUG-2 (LO-74)       
1 39440U 13066AA  21309.36313722  .00000785  00000-0  11425-3 0  9994
2 39440  97.6954 271.8928 0080585 137.5700 223.1779 14.76374520427214
NEE-02 KRYSAOR          
1 39441U 13066AB  21309.39200411  .00000555  00000-0  84840-4 0  9995
2 39441  97.7054 269.2050 0081998 149.3620 211.2416 14.75279172426991
FUNCUBE-1 (AO-73)       
1 39444U 13066AE  21309.36422416  .00001431  00000-0  17889-3 0  9998
2 39444  97.5990 288.8988 0058719  49.7588 310.8742 14.82596988428310
HINCUBE                 
1 39445U 13066AF  21309.38830669  .00001400  00000-0  17582-3 0  9990
2 39445  97.6006 288.7614 0058778  51.5794 309.0677 14.82424281428267
UWE-3                   
1 39446U 13066AG  21309.83828105  .00000930  00000-0  12762-3 0  9995
2 39446  97.6554 279.1226 0070972  98.1255 262.8015 14.78917971427997
AIST-1 (RS-41)          
1 39492U 13078C   21309.83085627  .00001605  00000-0  17116-3 0  9991
2 39492  82.4174  90.5223 0021055 124.8396 235.4821 14.88113146426523
SPROUT                  
1 39770U 14029E   21309.83631295  .00004471  00000-0  48242-3 0  9993
2 39770  97.9298  61.1087 0010252 103.2359 256.9997 14.88860590404372
UNISAT-6                
1 40012U 14033C   21309.25715468  .00000844  00000-0  13099-3 0  9992
2 40012  97.6657 144.2279 0058280 163.5146 196.7976 14.74426817396947
BUGSAT-1 (TITA)         
1 40014U 14033E   21309.56921980  .00001458  00000-0  13469-3 0  9999
2 40014  98.1252 294.2200 0032562  59.3836 301.0588 14.95911601402669
DUCHIFAT-1              
1 40021U 14033M   21309.35696490  .00001855  00000-0  19038-3 0  9998
2 40021  97.9852 251.1389 0014087  62.3901 297.8745 14.91603723401282
NANOSATC-BR1            
1 40024U 14033Q   21309.54355375  .00001539  00000-0  16267-3 0  9996
2 40024  97.9615 245.7766 0013494  67.4418 292.8226 14.90661610400613
QB50P1                  
1 40025U 14033R   21309.49086130  .00001497  00000-0  16247-3 0  9992
2 40025  97.9402 240.5935 0013800  75.7944 284.4805 14.89626365400410
DTUSAT-2                
1 40030U 14033W   21309.33521869  .00001328  00000-0  14640-3 0  9992
2 40030  97.9209 236.5758 0013256  73.1034 287.1635 14.89159167400283
QB50P2                  
1 40032U 14033Y   21309.36946470  .00001347  00000-0  14854-3 0  9994
2 40032  97.9214 236.6190 0013194  74.0394 286.2275 14.89121013400269
POLYITAN-1              
1 40042U 14033AJ  21309.35798557  .00002239  00000-0  24077-3 0  9994
2 40042  97.9501 241.3963 0015994  68.3256 291.9662 14.89468800400286
TIGRISAT                
1 40043U 14033AK  21309.26096376  .00000659  00000-0  10329-3 0  9994
2 40043  97.6616 145.6043 0060030 161.2375 199.1066 14.74624873396584
AISAT                   
1 40054U 14034B   21309.37696110  .00001626  00000-0  22936-3 0  9993
2 40054  98.3390 107.3437 0011862 316.3807  43.6465 14.78650055396353
CANX-4                  
1 40055U 14034C   21309.37748862  .00000421  00000-0  70468-4 0  9992
2 40055  98.3271  94.4919 0014041 356.3578   3.7525 14.75122280395684
CANX-5                  
1 40056U 14034D   21309.38302177  .00000435  00000-0  72566-4 0  9995
2 40056  98.3271  94.4815 0014060 356.6303   3.4808 14.75115066386494
VELOX-I                 
1 40057U 14034E   21309.79886087  .00002155  00000-0  30370-3 0  9995
2 40057  98.3438 108.8766 0009876 329.9596  30.1070 14.78354365396423
METEOR-M 2              
1 40069U 14037A   21309.85557507 -.00000076  00000-0 -15999-4 0  9993
2 40069  98.4504 332.6805 0004616 246.4133 113.6565 14.20690205380117
DX1                     
1 40071U 14037C   21309.80884990  .00001028  00000-0  13836-3 0  9993
2 40071  98.4354 162.0511 0007587 322.7261  37.3437 14.81572239396224
UKUBE-1                 
1 40074U 14037F   21309.78002020  .00003448  00000-0  41400-3 0  9995
2 40074  98.4087 173.4571 0003004 288.3706  71.7167 14.84715898396879
FIREBIRD 3              
1 40377U 15003B   21309.47540225  .00009996  00000-0  34685-3 0  9996
2 40377  99.1137 120.5543 0114559  60.1464 301.1095 15.23945423374257
FIREBIRD 4              
1 40378U 15003C   21309.44668496  .00010606  00000-0  36696-3 0  9999
2 40378  99.1140 120.6850 0114563  60.0114 301.2429 15.24011321374254
GRIFEX                  
1 40379U 15003D   21309.74625880  .00007891  00000-0  30726-3 0  9993
2 40379  99.1132 109.1102 0126290  94.6111 266.9556 15.19190346373636
CP10 (EXOCUBE)          
1 40380U 15003E   21309.37283882  .00008653  00000-0  35643-3 0  9996
2 40380  99.1154 102.4910 0132178 116.4103 245.0760 15.16708613373163
DEORBITSAIL             
1 40719U 15032E   21309.40972728  .00001581  00000-0  22794-3 0  9998
2 40719  97.8073 189.9665 0016800  15.5615 344.6109 14.77566859340797
NUDT-PHONESAT           
1 40900U 15049B   21309.85891498  .00018178  00000-0  66633-3 0  9991
2 40900  97.4160 323.1419 0011342  10.1899 113.0843 15.27987901340404
XW-2A                   
1 40903U 15049E   21309.87182134  .00015263  00000-0  30551-3 0  9998
2 40903  97.2188   3.8973 0010820 210.1314 267.3949 15.46785249344648
XW-2C                   
1 40906U 15049H   21309.86290691  .00004610  00000-0  23494-3 0  9990
2 40906  97.4901 310.5191 0015993  60.5069  56.6715 15.17161369339009
XW-2D                   
1 40907U 15049J   21309.82599600  .00005969  00000-0  29995-3 0  9999
2 40907  97.4886 310.3292 0015072  57.6101  64.1949 15.17540576339031
LILACSAT-2              
1 40908U 15049K   21309.87330131  .00002995  00000-0  16486-3 0  9994
2 40908  97.5106 308.0112 0017294  73.7448  42.5934 15.14687568338633
XW-2E                   
1 40909U 15049L   21309.86378360  .00007969  00000-0  36950-3 0  9994
2 40909  97.4677 314.5538 0014236  43.8207  40.3101 15.20241083339418
XW-2F                   
1 40910U 15049M   21309.85435480  .00007878  00000-0  37061-3 0  9995
2 40910  97.4732 313.6358 0015130  43.4390  76.3449 15.19736470339191
XW-2B                   
1 40911U 15049N   21309.83667917  .00005566  00000-0  28067-3 0  9994
2 40911  97.4887 310.9979 0015002  58.1527  63.2628 15.17450029338920
KAITUO 1B               
1 40912U 15049P   21309.87544249  .00009053  00000-0  39397-3 0  9994
2 40912  97.4438 318.0410 0014379  15.0330 104.9762 15.22374037339701
TIANWANG 1A (TW-1A)     
1 40928U 15051D   21309.89128652  .00023915  00000-0  45488-3 0  9993
2 40928  97.0668 331.5025 0010755 125.8419 357.0696 15.48170258343555
LAPAN-A2                
1 40931U 15052B   21306.66199148  .00000674  00000-0  47303-5 0  9995
2 40931   5.9960 346.6588 0012955 202.9622 156.9958 14.76699696329766
LQSAT                   
1 40958U 15057A   21309.88785186  .00000204  00000-0  38958-4 0  9993
2 40958  97.7852   0.7104 0016999 324.7582  35.2477 14.73213523327060
ATHENOXAT 1             
1 41168U 15077C   21309.19853057  .00008927  00000-0  40745-3 0  9992
2 41168  14.9866 305.6791 0010560 336.7821 108.6568 15.16566588326173
GALASSIA                
1 41170U 15077E   21309.15057900  .00009650  00000-0  44143-3 0  9994
2 41170  14.9894 296.4877 0011729   7.3509 352.6984 15.16688316326088
VELOX-II                
1 41171U 15077F   21309.47429293  .00006166  00000-0  30023-3 0  9999
2 41171  14.9927 357.2089 0008386 231.5007 128.4562 15.13107745325614
CHUBUSAT-2              
1 41338U 16012B   21309.48648523  .00001251  00000-0  89737-4 0  9991
2 41338  31.0040   9.0097 0013592  91.4435 268.7758 15.00677816313809
CHUBUSAT-3              
1 41339U 16012C   21309.56262016  .00001862  00000-0  13639-3 0  9995
2 41339  31.0131   5.6112 0013265  99.2707 260.9430 15.00815632313818
HORYU-4                 
1 41340U 16012D   21309.43947619  .00002258  00000-0  16097-3 0  9993
2 41340  31.0060 348.1700 0013622 133.2051 226.9725 15.02137883314005
